{
  "type": "FeatureCollection",
  "features": [
    {
      "type": "Feature",
      "properties": {
        "norad_id": 34036,
        "name": "COSMOS 2251 DEB",
        "group": "cosmos-2251-debris",
        "lat": -34.74562385919048,
        "lon": 107.52579574052848,
        "alt_km": 590.859658457176,
        "timestamp": "2025-12-27T17:24:57.801209+00:00",
        "meta_object_name": "COSMOS 2251 DEB",
        "meta_object_id": "1993-036HX",
        "meta_epoch": "2025-12-27T11:09:34.284096",
        "meta_mean_motion": 14.96189883,
        "meta_eccentricity": 0.000911,
        "meta_inclination": 74.0189,
        "meta_ra_of_asc_node": 119.5183,
        "meta_arg_of_pericenter": 143.5614,
        "meta_mean_anomaly": 216.6193,
        "meta_ephemeris_type": 0,
        "meta_classification_type": "U",
        "meta_norad_cat_id": 34036,
        "meta_element_set_no": 999,
        "meta_rev_at_epoch": 88790,
        "meta_bstar": 0.004374,
        "meta_mean_motion_dot": 0.00049669,
        "meta_mean_motion_ddot": 0,
        "tle_line1": "1 34036U 93036HX  25361.46498014  .00049669  00000+0  43740-2 0  9993",
        "tle_line2": "2 34036  74.0189 119.5183 0009110 143.5614 216.6193 14.96189883887907"
      },
      "geometry": {
        "type": "Point",
        "coordinates": [
          107.52579574052848,
          -34.74562385919048
        ]
      }
    },
    {
      "type": "Feature",
      "properties": {
        "norad_id": 34037,
        "name": "COSMOS 2251 DEB",
        "group": "cosmos-2251-debris",
        "lat": -17.720547049119677,
        "lon": 17.771128485087885,
        "alt_km": 778.3418940772062,
        "timestamp": "2025-12-27T17:24:57.801220+00:00",
        "meta_object_name": "COSMOS 2251 DEB",
        "meta_object_id": "1993-036HY",
        "meta_epoch": "2025-12-27T04:06:49.459392",
        "meta_mean_motion": 14.34701761,
        "meta_eccentricity": 0.00518291,
        "meta_inclination": 74.0508,
        "meta_ra_of_asc_node": 24.0281,
        "meta_arg_of_pericenter": 69.5269,
        "meta_mean_anomaly": 291.1436,
        "meta_ephemeris_type": 0,
        "meta_classification_type": "U",
        "meta_norad_cat_id": 34037,
        "meta_element_set_no": 999,
        "meta_rev_at_epoch": 87924,
        "meta_bstar": 0.00049446524,
        "meta_mean_motion_dot": 1.396e-05,
        "meta_mean_motion_ddot": 0,
        "tle_line1": "1 34037U 93036HY  25361.17140578  .00001396  00000+0  49447-3 0  9997",
        "tle_line2": "2 34037  74.0508  24.0281 0051829  69.5269 291.1436 14.34701761879242"
      },
      "geometry": {
        "type": "Point",
        "coordinates": [
          17.771128485087885,
          -17.720547049119677
        ]
      }
    },
    {
      "type": "Feature",
      "properties": {
        "norad_id": 34040,
        "name": "COSMOS 2251 DEB",
        "group": "cosmos-2251-debris",
        "lat": -68.14848792039912,
        "lon": -93.04392805558315,
        "alt_km": 1032.3138867878815,
        "timestamp": "2025-12-27T17:24:57.801244+00:00",
        "meta_object_name": "COSMOS 2251 DEB",
        "meta_object_id": "1993-036JB",
        "meta_epoch": "2025-12-27T03:52:14.862432",
        "meta_mean_motion": 13.68401974,
        "meta_eccentricity": 0.03435032,
        "meta_inclination": 73.9553,
        "meta_ra_of_asc_node": 42.0324,
        "meta_arg_of_pericenter": 352.4928,
        "meta_mean_anomaly": 7.1115,
        "meta_ephemeris_type": 0,
        "meta_classification_type": "U",
        "meta_norad_cat_id": 34040,
        "meta_element_set_no": 999,
        "meta_rev_at_epoch": 83797,
        "meta_bstar": 0.00098962302,
        "meta_mean_motion_dot": 1.254e-05,
        "meta_mean_motion_ddot": 0,
        "tle_line1": "1 34040U 93036JB  25361.16128313  .00001254  00000+0  98962-3 0  9992",
        "tle_line2": "2 34040  73.9553  42.0324 0343503 352.4928   7.1115 13.68401974837973"
      },
      "geometry": {
        "type": "Point",
        "coordinates": [
          -93.04392805558315,
          -68.14848792039912
        ]
      }
    },
    {
      "type": "Feature",
      "properties": {
        "norad_id": 34045,
        "name": "COSMOS 2251 DEB",
        "group": "cosmos-2251-debris",
        "lat": -5.966385206538441,
        "lon": -78.30222342039038,
        "alt_km": 762.9146870667073,
        "timestamp": "2025-12-27T17:24:57.801257+00:00",
        "meta_object_name": "COSMOS 2251 DEB",
        "meta_object_id": "1993-036JG",
        "meta_epoch": "2025-12-27T06:17:04.640064",
        "meta_mean_motion": 14.34077221,
        "meta_eccentricity": 0.0026272,
        "meta_inclination": 74.0395,
        "meta_ra_of_asc_node": 284.26,
        "meta_arg_of_pericenter": 3.8971,
        "meta_mean_anomaly": 116.52,
        "meta_ephemeris_type": 0,
        "meta_classification_type": "U",
        "meta_norad_cat_id": 34045,
        "meta_element_set_no": 999,
        "meta_rev_at_epoch": 88241,
        "meta_bstar": 0.00011389,
        "meta_mean_motion_dot": 2.94e-06,
        "meta_mean_motion_ddot": 0,
        "tle_line1": "1 34045U 93036JG  25361.26185926  .00000294  00000+0  11389-3 0  9992",
        "tle_line2": "2 34045  74.0395 284.2600 0026272   3.8971 116.5200 14.34077221882414"
      },
      "geometry": {
        "type": "Point",
        "coordinates": [
          -78.30222342039038,
          -5.966385206538441
        ]
      }
    },
    {
      "type": "Feature",
      "properties": {
        "norad_id": 34046,
        "name": "COSMOS 2251 DEB",
        "group": "cosmos-2251-debris",
        "lat": -61.734884563296426,
        "lon": -49.66988595947813,
        "alt_km": 775.9118627380594,
        "timestamp": "2025-12-27T17:24:57.801268+00:00",
        "meta_object_name": "COSMOS 2251 DEB",
        "meta_object_id": "1993-036JH",
        "meta_epoch": "2025-12-27T10:07:24.985344",
        "meta_mean_motion": 14.46598761,
        "meta_eccentricity": 0.007464,
        "meta_inclination": 74.0398,
        "meta_ra_of_asc_node": 343.0563,
        "meta_arg_of_pericenter": 62.1547,
        "meta_mean_anomaly": 90.4619,
        "meta_ephemeris_type": 0,
        "meta_classification_type": "U",
        "meta_norad_cat_id": 34046,
        "meta_element_set_no": 999,
        "meta_rev_at_epoch": 88038,
        "meta_bstar": 0.0015222,
        "meta_mean_motion_dot": 5.661e-05,
        "meta_mean_motion_ddot": 0,
        "tle_line1": "1 34046U 93036JH  25361.42181696  .00005661  00000+0  15222-2 0  9993",
        "tle_line2": "2 34046  74.0398 343.0563 0074640  62.1547  90.4619 14.46598761880387"
      },
      "geometry": {
        "type": "Point",
        "coordinates": [
          -49.66988595947813,
          -61.734884563296426
        ]
      }
    },
    {
      "type": "Feature",
      "properties": {
        "norad_id": 34050,
        "name": "COSMOS 2251 DEB",
        "group": "cosmos-2251-debris",
        "lat": -24.08675977229451,
        "lon": -22.981576021408262,
        "alt_km": 855.1817801119842,
        "timestamp": "2025-12-27T17:24:57.801282+00:00",
        "meta_object_name": "COSMOS 2251 DEB",
        "meta_object_id": "1993-036JM",
        "meta_epoch": "2025-12-27T09:29:39.401952",
        "meta_mean_motion": 13.96217157,
        "meta_eccentricity": 0.021491,
        "meta_inclination": 74.0884,
        "meta_ra_of_asc_node": 344.9108,
        "meta_arg_of_pericenter": 45.5016,
        "meta_mean_anomaly": 73.3588,
        "meta_ephemeris_type": 0,
        "meta_classification_type": "U",
        "meta_norad_cat_id": 34050,
        "meta_element_set_no": 999,
        "meta_rev_at_epoch": 85636,
        "meta_bstar": 0.00096206,
        "meta_mean_motion_dot": 1.584e-05,
        "meta_mean_motion_ddot": 0,
        "tle_line1": "1 34050U 93036JM  25361.39559493  .00001584  00000+0  96206-3 0  9990",
        "tle_line2": "2 34050  74.0884 344.9108 0214910  45.5016  73.3588 13.96217157856366"
      },
      "geometry": {
        "type": "Point",
        "coordinates": [
          -22.981576021408262,
          -24.08675977229451
        ]
      }
    },
    {
      "type": "Feature",
      "properties": {
        "norad_id": 34053,
        "name": "COSMOS 2251 DEB",
        "group": "cosmos-2251-debris",
        "lat": -63.654964442767174,
        "lon": -177.80879687686814,
        "alt_km": 977.7744305197293,
        "timestamp": "2025-12-27T17:24:57.801293+00:00",
        "meta_object_name": "COSMOS 2251 DEB",
        "meta_object_id": "1993-036JQ",
        "meta_epoch": "2025-12-26T15:02:38.951808",
        "meta_mean_motion": 13.49181379,
        "meta_eccentricity": 0.0422948,
        "meta_inclination": 73.8425,
        "meta_ra_of_asc_node": 219.7929,
        "meta_arg_of_pericenter": 6.0641,
        "meta_mean_anomaly": 354.5355,
        "meta_ephemeris_type": 0,
        "meta_classification_type": "U",
        "meta_norad_cat_id": 34053,
        "meta_element_set_no": 999,
        "meta_rev_at_epoch": 82871,
        "meta_bstar": 0.00055816,
        "meta_mean_motion_dot": 5.87e-06,
        "meta_mean_motion_ddot": 0,
        "tle_line1": "1 34053U 93036JQ  25360.62683972  .00000587  00000+0  55816-3 0  9992",
        "tle_line2": "2 34053  73.8425 219.7929 0422948   6.0641 354.5355 13.49181379828713"
      },
      "geometry": {
        "type": "Point",
        "coordinates": [
          -177.80879687686814,
          -63.654964442767174
        ]
      }
    }
  ]
}